{"type": "FeatureCollection", "features": [ {"type": "Feature", "properties": {"norad_id": 42741, "name": "EUTELSAT 172B", "group": "eutelsat", "lat": -0.004853105975085295, "lon": -36.85214183275748, "alt_km": 35785.803453749344, "timestamp": "2025-12-09T04:51:47.179707+00:00", "meta": {"OBJECT_NAME": "EUTELSAT 172B", "OBJECT_ID": "2017-029B", "EPOCH": "2025-12-08T20:03:38.651328", "MEAN_MOTION": 1.00270561, "ECCENTRICITY": 1.62e-05, "INCLINATION": 0.0129, "RA_OF_ASC_NODE": 88.9406, "ARG_OF_PERICENTER": 207.2634, "MEAN_ANOMALY": 254.5512, "EPHEMERIS_TYPE": 0, "CLASSIFICATION_TYPE": "U", "NORAD_CAT_ID": 42741, "ELEMENT_SET_NO": 999, "REV_AT_EPOCH": 3182, "BSTAR": 0, "MEAN_MOTION_DOT": -4e-08, "MEAN_MOTION_DDOT": 0}, "tle": {"line1": "1 42741U 17029B   25342.83586402 -.00000004  00000+0  00000+0 0  9992", "line2": "2 42741   0.0129  88.9406 0000162 207.2634 254.5512  1.00270561 31820"}}, "geometry": {"type": "Point", "coordinates": [-36.85214183275748, -0.004853105975085295]}}, {"type": "Feature", "properties": {"norad_id": 44334, "name": "EUTELSAT 7C", "group": "eutelsat", "lat": -0.02875454981501327, "lon": 158.0799670621712, "alt_km": 35783.907265554706, "timestamp": "2025-12-09T04:51:47.179719+00:00", "meta": {"OBJECT_NAME": "EUTELSAT 7C", "OBJECT_ID": "2019-034B", "EPOCH": "2025-12-08T13:37:59.577024", "MEAN_MOTION": 1.00270644, "ECCENTRICITY": 0.0003493, "INCLINATION": 0.0737, "RA_OF_ASC_NODE": 179.6012, "ARG_OF_PERICENTER": 58.7605, "MEAN_ANOMALY": 50.69, "EPHEMERIS_TYPE": 0, "CLASSIFICATION_TYPE": "U", "NORAD_CAT_ID": 44334, "ELEMENT_SET_NO": 999, "REV_AT_EPOCH": 492, "BSTAR": 0, "MEAN_MOTION_DOT": 5e-07, "MEAN_MOTION_DDOT": 0}, "tle": {"line1": "1 44334U 19034B   25342.56805066  .00000050  00000+0  00000+0 0  9990", "line2": "2 44334   0.0737 179.6012 0003493  58.7605  50.6900  1.00270644  4922"}}, "geometry": {"type": "Point", "coordinates": [158.0799670621712, -0.02875454981501327]}}, {"type": "Feature", "properties": {"norad_id": 44624, "name": "EUTELSAT 5 WEST B", "group": "eutelsat", "lat": 0.02180408194179484, "lon": 146.1019862343817, "alt_km": 35792.02417942551, "timestamp": "2025-12-09T04:51:47.179731+00:00", "meta": {"OBJECT_NAME": "EUTELSAT 5 WEST B", "OBJECT_ID": "2019-067A", "EPOCH": "2025-12-08T18:43:01.461792", "MEAN_MOTION": 1.00270965, "ECCENTRICITY": 0.0003533, "INCLINATION": 0.0649, "RA_OF_ASC_NODE": 340.5321, "ARG_OF_PERICENTER": 278.06, "MEAN_ANOMALY": 94.9453, "EPHEMERIS_TYPE": 0, "CLASSIFICATION_TYPE": "U", "NORAD_CAT_ID": 44624, "ELEMENT_SET_NO": 999, "REV_AT_EPOCH": 2252, "BSTAR": 0, "MEAN_MOTION_DOT": -4e-07, "MEAN_MOTION_DDOT": 0}, "tle": {"line1": "1 44624U 19067A   25342.77987803 -.00000040  00000+0  00000+0 0  9991", "line2": "2 44624   0.0649 340.5321 0003533 278.0600  94.9453  1.00270965 22521"}}, "geometry": {"type": "Point", "coordinates": [146.1019862343817, 0.02180408194179484]}}, {"type": "Feature", "properties": {"norad_id": 45027, "name": "EUTELSAT KONNECT", "group": "eutelsat", "lat": 0.06250226278193939, "lon": 158.32222819894815, "alt_km": 35787.765752171756, "timestamp": "2025-12-09T04:51:47.179743+00:00", "meta": {"OBJECT_NAME": "EUTELSAT KONNECT", "OBJECT_ID": "2020-005B", "EPOCH": "2025-12-08T15:20:57.215904", "MEAN_MOTION": 1.00272826, "ECCENTRICITY": 0.0001645, "INCLINATION": 0.0714, "RA_OF_ASC_NODE": 97.9851, "ARG_OF_PERICENTER": 167.2799, "MEAN_ANOMALY": 49.8134, "EPHEMERIS_TYPE": 0, "CLASSIFICATION_TYPE": "U", "NORAD_CAT_ID": 45027, "ELEMENT_SET_NO": 999, "REV_AT_EPOCH": 2242, "BSTAR": 0, "MEAN_MOTION_DOT": 5.2e-07, "MEAN_MOTION_DDOT": 0}, "tle": {"line1": "1 45027U 20005B   25342.63955111  .00000052  00000+0  00000+0 0  9997", "line2": "2 45027   0.0714  97.9851 0001645 167.2799  49.8134  1.00272826 22425"}}, "geometry": {"type": "Point", "coordinates": [158.32222819894815, 0.06250226278193939]}}, {"type": "Feature", "properties": {"norad_id": 49056, "name": "EUTELSAT QUANTUM", "group": "eutelsat", "lat": 0.008238697321286717, "lon": -161.19804786069838, "alt_km": 35780.898033237776, "timestamp": "2025-12-09T04:51:47.179754+00:00", "meta": {"OBJECT_NAME": "EUTELSAT QUANTUM", "OBJECT_ID": "2021-069B", "EPOCH": "2025-12-08T10:24:25.614720", "MEAN_MOTION": 1.00271583, "ECCENTRICITY": 0.00036828, "INCLINATION": 0.0323, "RA_OF_ASC_NODE": 53.6769, "ARG_OF_PERICENTER": 215.93, "MEAN_ANOMALY": 11.6408, "EPHEMERIS_TYPE": 0, "CLASSIFICATION_TYPE": "U", "NORAD_CAT_ID": 49056, "ELEMENT_SET_NO": 999, "REV_AT_EPOCH": 1601, "BSTAR": 0, "MEAN_MOTION_DOT": 1.28e-06, "MEAN_MOTION_DDOT": 0}, "tle": {"line1": "1 49056U 21069B   25342.43362980  .00000128  00000+0  00000+0 0  9992", "line2": "2 49056   0.0323  53.6769 0003682 215.9300  11.6408  1.00271583 16014"}}, "geometry": {"type": "Point", "coordinates": [-161.19804786069838, 0.008238697321286717]}}, {"type": "Feature", "properties": {"norad_id": 53765, "name": "EUTELSAT KONNECT VHTS", "group": "eutelsat", "lat": 0.05060278163226567, "lon": 153.81682480163118, "alt_km": 35785.328246576566, "timestamp": "2025-12-09T04:51:47.179766+00:00", "meta": {"OBJECT_NAME": "EUTELSAT KONNECT VHTS", "OBJECT_ID": "2022-110A", "EPOCH": "2025-12-08T18:45:08.760096", "MEAN_MOTION": 1.00270517, "ECCENTRICITY": 0.0002636, "INCLINATION": 0.0627, "RA_OF_ASC_NODE": 103.4573, "ARG_OF_PERICENTER": 134.6308, "MEAN_ANOMALY": 123.689, "EPHEMERIS_TYPE": 0, "CLASSIFICATION_TYPE": "U", "NORAD_CAT_ID": 53765, "ELEMENT_SET_NO": 999, "REV_AT_EPOCH": 491, "BSTAR": 0, "MEAN_MOTION_DOT": 1.9e-07, "MEAN_MOTION_DDOT": 0}, "tle": {"line1": "1 53765U 22110A   25342.78135139  .00000019  00000+0  00000+0 0  9993", "line2": "2 53765   0.0627 103.4573 0002636 134.6308 123.6890  1.00270517  4914"}}, "geometry": {"type": "Point", "coordinates": [153.81682480163118, 0.05060278163226567]}}, {"type": "Feature", "properties": {"norad_id": 54048, "name": "EUTELSAT HOTBIRD 13F", "group": "eutelsat", "lat": -0.03901410114863911, "lon": 164.16000915310403, "alt_km": 35794.60085232633, "timestamp": "2025-12-09T04:51:47.179777+00:00", "meta": {"OBJECT_NAME": "EUTELSAT HOTBIRD 13F", "OBJECT_ID": "2022-134A", "EPOCH": "2025-12-08T15:22:42.049344", "MEAN_MOTION": 1.00271424, "ECCENTRICITY": 0.0002045, "INCLINATION": 0.0486, "RA_OF_ASC_NODE": 292.2851, "ARG_OF_PERICENTER": 61.4058, "MEAN_ANOMALY": 327.6443, "EPHEMERIS_TYPE": 0, "CLASSIFICATION_TYPE": "U", "NORAD_CAT_ID": 54048, "ELEMENT_SET_NO": 999, "REV_AT_EPOCH": 1146, "BSTAR": 0, "MEAN_MOTION_DOT": 8.9e-07, "MEAN_MOTION_DDOT": 0}, "tle": {"line1": "1 54048U 22134A   25342.64076446  .00000089  00000+0  00000+0 0  9991", "line2": "2 54048   0.0486 292.2851 0002045  61.4058 327.6443  1.00271424 11467"}}, "geometry": {"type": "Point", "coordinates": [164.16000915310403, -0.03901410114863911]}}, {"type": "Feature", "properties": {"norad_id": 54225, "name": "EUTELSAT HOTBIRD 13G", "group": "eutelsat", "lat": -0.04083828659524941, "lon": 164.12507897426914, "alt_km": 35779.05035865307, "timestamp": "2025-12-09T04:51:47.179789+00:00", "meta": {"OBJECT_NAME": "EUTELSAT HOTBIRD 13G", "OBJECT_ID": "2022-146A", "EPOCH": "2025-12-08T15:22:42.049344", "MEAN_MOTION": 1.00270657, "ECCENTRICITY": 0.0001883, "INCLINATION": 0.0488, "RA_OF_ASC_NODE": 235.9302, "ARG_OF_PERICENTER": 310.6832, "MEAN_ANOMALY": 134.7005, "EPHEMERIS_TYPE": 0, "CLASSIFICATION_TYPE": "U", "NORAD_CAT_ID": 54225, "ELEMENT_SET_NO": 999, "REV_AT_EPOCH": 555, "BSTAR": 0, "MEAN_MOTION_DOT": 8.9e-07, "MEAN_MOTION_DDOT": 0}, "tle": {"line1": "1 54225U 22146A   25342.64076446  .00000089  00000+0  00000+0 0  9991", "line2": "2 54225   0.0488 235.9302 0001883 310.6832 134.7005  1.00270657  5550"}}, "geometry": {"type": "Point", "coordinates": [164.12507897426914, -0.04083828659524941]}}, {"type": "Feature", "properties": {"norad_id": 54259, "name": "EUTELSAT 10B", "group": "eutelsat", "lat": 0.053694039028313545, "lon": 161.10952097689588, "alt_km": 35783.443088879096, "timestamp": "2025-12-09T04:51:47.179800+00:00", "meta": {"OBJECT_NAME": "EUTELSAT 10B", "OBJECT_ID": "2022-157A", "EPOCH": "2025-12-08T18:47:16.055808", "MEAN_MOTION": 1.00268735, "ECCENTRICITY": 8.6e-05, "INCLINATION": 0.0629, "RA_OF_ASC_NODE": 99.97, "ARG_OF_PERICENTER": 78.0476, "MEAN_ANOMALY": 191.5594, "EPHEMERIS_TYPE": 0, "CLASSIFICATION_TYPE": "U", "NORAD_CAT_ID": 54259, "ELEMENT_SET_NO": 999, "REV_AT_EPOCH": 1111, "BSTAR": 0, "MEAN_MOTION_DOT": 7e-07, "MEAN_MOTION_DDOT": 0}, "tle": {"line1": "1 54259U 22157A   25342.78282472  .00000070  00000+0  00000+0 0  9993", "line2": "2 54259   0.0629  99.9700 0000860  78.0476 191.5594  1.00268735 11114"}}, "geometry": {"type": "Point", "coordinates": [161.10952097689588, 0.053694039028313545]}}, {"type": "Feature", "properties": {"norad_id": 59346, "name": "EUTELSAT 36D", "group": "eutelsat", "lat": -0.02247089757658394, "lon": -172.9994576897267, "alt_km": 35787.37249629033, "timestamp": "2025-12-09T04:51:47.179811+00:00", "meta": {"OBJECT_NAME": "EUTELSAT 36D", "OBJECT_ID": "2024-059A", "EPOCH": "2025-12-08T13:46:36.253344", "MEAN_MOTION": 1.00268699, "ECCENTRICITY": 3.58e-05, "INCLINATION": 0.0187, "RA_OF_ASC_NODE": 325.0021, "ARG_OF_PERICENTER": 331.7781, "MEAN_ANOMALY": 23.3194, "EPHEMERIS_TYPE": 0, "CLASSIFICATION_TYPE": "U", "NORAD_CAT_ID": 59346, "ELEMENT_SET_NO": 999, "REV_AT_EPOCH": 623, "BSTAR": 0, "MEAN_MOTION_DOT": 1.58e-06, "MEAN_MOTION_DDOT": 0}, "tle": {"line1": "1 59346U 24059A   25342.57403071  .00000158  00000+0  00000+0 0  9992", "line2": "2 59346   0.0187 325.0021 0000358 331.7781  23.3194  1.00268699  6238"}}, "geometry": {"type": "Point", "coordinates": [-172.9994576897267, -0.02247089757658394]}}]}